NORAD_CAT_ID,OBJECT_NAME,OBJECT_TYPE,EPOCH,MEAN_MOTION,ECCENTRICITY,INCLINATION,RA_OF_ASC_NODE,ARG_OF_PERICENTER,MEAN_ANOMALY,BSTAR,MEAN_MOTION_DOT,MEAN_MOTION_DDOT,TLE_LINE0,TLE_LINE1,TLE_LINE2,SEMIMAJOR_AXIS,PERIOD,APOGEE,PERIGEE,DECAYED
55639.0,STARLINK-5508,PAYLOAD,2024-06-21 19:51:53,14.98330715,0.0003008,70.0007,322.4643,271.1559,88.9256,2.5678e-05,2.13e-06,0.0,0 STARLINK-5508,1 55639U 23021M   24173.82769706  .00000213  00000-0  25678-4 0  9996,2 55639  70.0007 322.4643 0003008 271.1559  88.9256 14.98330715 74740,6950.191,96.107,574.146,569.965,0.0
55639.0,STARLINK-5508,PAYLOAD,2024-06-22 13:29:21,14.98329077,0.0003012,70.0008,320.6123,270.9726,89.1088,-4.136e-06,-1.42e-06,0.0,0 STARLINK-5508,1 55639U 23021M   24174.56205874 -.00000142  00000-0 -41360-5 0  9999,2 55639  70.0008 320.6123 0003012 270.9726  89.1088 14.98329077 75153,6950.196,96.107,574.154,569.967,0.0
55639.0,STARLINK-5508,PAYLOAD,2024-06-22 19:53:54,14.98329769,0.0002998,70.0009,319.9393,268.6532,91.4283,1.7061e-06,-7.3e-07,0.0,0 STARLINK-5508,1 55639U 23021M   24174.82909805 -.00000073  00000-0  17061-5 0  9996,2 55639  70.0009 319.9393 0002998 268.6532  91.4283 14.98329769 74896,6950.194,96.107,574.142,569.975,0.0
55639.0,STARLINK-5508,PAYLOAD,2024-06-23 13:31:22,14.98329465,0.0003004,70.0009,318.0878,267.5025,92.579,5.1986e-07,-8.7e-07,0.0,0 STARLINK-5508,1 55639U 23021M   24175.56345828 -.00000087  00000-0  51986-6 0  9997,2 55639  70.0009 318.0878 0003004 267.5025  92.5790 14.98329465 75303,6950.195,96.107,574.147,569.972,0.0
55639.0,STARLINK-5508,PAYLOAD,2024-06-23 19:55:54,14.98332045,0.0002967,70.0009,317.4142,267.3415,92.7404,3.2152e-05,2.91e-06,0.0,0 STARLINK-5508,1 55639U 23021M   24175.83049562  .00000291  00000-0  32152-4 0  9991,2 55639  70.0009 317.4142 0002967 267.3415  92.7404 14.98332045 75041,6950.187,96.107,574.114,569.989,0.0
55639.0,STARLINK-5508,PAYLOAD,2024-06-24 13:33:23,14.98331821,0.0002939,70.0009,315.5628,265.5491,94.5333,4.7534e-05,4.74e-06,0.0,0 STARLINK-5508,1 55639U 23021M   24176.56485385  .00000474  00000-0  47534-4 0  9992,2 55639  70.0009 315.5628 0002939 265.5491  94.5333 14.98331821 75459,6950.187,96.107,574.095,570.01,0.0
55639.0,STARLINK-5508,PAYLOAD,2024-06-24 18:21:47,14.98333118,0.0002925,70.001,315.058,266.4884,93.594,6.0371e-05,6.27e-06,0.0,0 STARLINK-5508,1 55639U 23021M   24176.76513243  .00000627  00000-0  60371-4 0  9993,2 55639  70.0010 315.0580 0002925 266.4884  93.5940 14.98333118 75481,6950.183,96.107,574.081,570.015,0.0
55639.0,STARLINK-5508,PAYLOAD,2024-06-25 11:59:19,14.98297458,0.0003487,70.0008,313.2064,276.6047,83.4715,-0.00037327,-4.54e-05,0.0,0 STARLINK-5508,1 55639U 23021M   24177.49952636 -.00004540  00000-0 -37327-3 0  9991,2 55639  70.0008 313.2064 0003487 276.6047  83.4715 14.98297458 75296,6950.294,96.109,574.582,569.735,0.0
55639.0,STARLINK-5508,PAYLOAD,2024-06-25 13:35:26,14.98306154,0.0003459,70.0006,313.0383,273.9344,86.142,-0.0002764,-3.387e-05,0.0,0 STARLINK-5508,1 55639U 23021M   24177.56627967 -.00003387  00000-0 -27640-3 0  9990,2 55639  70.0006 313.0383 0003459 273.9344  86.1420 14.98306154 75607,6950.267,96.109,574.536,569.728,0.0
55639.0,STARLINK-5508,PAYLOAD,2024-06-25 18:23:51,14.98303596,0.0003075,70.001,312.5334,265.1902,94.8906,-0.00028744,-3.519e-05,0.0,0 STARLINK-5508,1 55639U 23021M   24177.76656394 -.00003519  00000-0 -28744-3 0  9991,2 55639  70.0010 312.5334 0003075 265.1902  94.8906 14.98303596 75331,6950.275,96.109,574.277,570.002,0.0
55639.0,STARLINK-5508,PAYLOAD,2024-06-26 02:24:30,14.98318347,0.0003805,69.9993,311.6904,271.4279,88.6444,-0.00019709,-2.443e-05,0.0,0 STARLINK-5508,1 55639U 23021M   24178.10035485 -.00002443  00000-0 -19709-3 0  9998,2 55639  69.9993 311.6904 0003805 271.4279  88.6444 14.98318347 75382,6950.229,96.108,574.738,569.449,0.0
55639.0,STARLINK-5508,PAYLOAD,2024-06-26 12:01:18,14.98319692,0.0003372,70.0023,310.6844,269.6468,90.4305,-5.6797e-05,-7.7e-06,0.0,0 STARLINK-5508,1 55639U 23021M   24178.50091429 -.00000770  00000-0 -56797-4 0  9992,2 55639  70.0023 310.6844 0003372 269.6468  90.4305 14.98319692 75740,6950.225,96.108,574.433,569.746,0.0
55639.0,STARLINK-5508,PAYLOAD,2024-06-27 13:39:25,14.98344266,0.0003929,69.9998,307.9875,275.6225,84.4486,0.00019465,2.231e-05,0.0,0 STARLINK-5508,1 55639U 23021M   24179.56905050  .00002231  00000-0  19465-3 0  9995,2 55639  69.9998 307.9875 0003929 275.6225  84.4486 14.98344266 75600,6950.149,96.106,574.744,569.283,0.0
55639.0,STARLINK-5508,PAYLOAD,2024-06-27 18:27:49,14.98339881,0.0003746,70.0002,307.4836,274.51,85.5631,0.00047437,5.573e-05,0.0,0 STARLINK-5508,1 55639U 23021M   24179.76932464  .00005573  00000-0  47437-3 0  9998,2 55639  70.0002 307.4836 0003746 274.5100  85.5631 14.98339881 75935,6950.162,96.106,574.631,569.424,0.0
55639.0,STARLINK-5508,PAYLOAD,2024-06-28 02:28:30,14.98328153,0.0003828,70.0,306.6412,267.237,92.8351,0.00029433,3.421e-05,0.0,0 STARLINK-5508,1 55639U 23021M   24180.10313559  .00003421  00000-0  29433-3 0  9992,2 55639  70.0000 306.6412 0003828 267.2370  92.8351 14.98328153 75685,6950.199,96.107,574.724,569.403,0.0
55639.0,STARLINK-5508,PAYLOAD,2024-06-28 15:17:34,14.98347885,0.0003328,70.0004,305.2947,267.5396,92.5382,3.6434e-05,3.42e-06,0.0,0 STARLINK-5508,1 55639U 23021M   24180.63720774  .00000342  00000-0  36434-4 0  9990,2 55639  70.0004 305.2947 0003328 267.5396  92.5382 14.98347885 76060,6950.138,96.106,574.316,569.69,0.0
55639.0,STARLINK-5508,PAYLOAD,2024-06-28 18:29:50,14.98347471,0.0003356,70.0008,304.9581,269.559,90.5184,0.00011593,1.291e-05,0.0,0 STARLINK-5508,1 55639U 23021M   24180.77072516  .00001291  00000-0  11593-3 0  9991,2 55639  70.0008 304.9581 0003356 269.5590  90.5184 14.98347471 75780,6950.139,96.106,574.336,569.671,0.0
55639.0,STARLINK-5508,PAYLOAD,2024-06-29 12:07:20,14.98329981,0.0003873,70.0005,303.1069,278.9067,81.1654,-0.00028362,-3.476e-05,0.0,0 STARLINK-5508,1 55639U 23021M   24181.50510408 -.00003476  00000-0 -28362-3 0  9991,2 55639  70.0005 303.1069 0003873 278.9067  81.1654 14.98329981 75892,6950.193,96.107,574.75,569.366,0.0
55639.0,STARLINK-5508,PAYLOAD,2024-06-29 18:31:52,14.98334461,0.0003481,70.0004,302.433,271.3363,88.7397,-0.00021822,-2.696e-05,0.0,0 STARLINK-5508,1 55639U 23021M   24181.77213835 -.00002696  00000-0 -21822-3 0  9991,2 55639  70.0004 302.4330 0003481 271.3363  88.7397 14.98334461 75936,6950.179,96.107,574.463,569.625,0.0
55639.0,STARLINK-5508,PAYLOAD,2024-06-30 00:56:24,14.98341226,0.0003704,69.9999,301.7594,273.4678,86.6057,-0.00022262,-2.749e-05,0.0,0 STARLINK-5508,1 55639U 23021M   24182.03917267 -.00002749  00000-0 -22262-3 0  9999,2 55639  69.9999 301.7594 0003704 273.4678  86.6057 14.98341226 75971,6950.158,96.106,574.598,569.449,0.0
55639.0,STARLINK-5508,PAYLOAD,2024-06-30 13:45:28,14.98331271,0.0003675,70.0006,300.4139,267.9908,92.083,0.00012021,1.342e-05,0.0,0 STARLINK-5508,1 55639U 23021M   24182.57324933  .00001342  00000-0  12021-3 0  9998,2 55639  70.0006 300.4139 0003675 267.9908  92.0830 14.98331271 76357,6950.189,96.107,574.608,569.5,0.0
55639.0,STARLINK-5508,PAYLOAD,2024-06-30 16:57:44,14.98342747,0.0003382,70.0002,300.0768,269.5495,90.5277,3.467e-05,3.21e-06,0.0,0 STARLINK-5508,1 55639U 23021M   24182.70676421  .00000321  00000-0  34670-4 0  9996,2 55639  70.0002 300.0768 0003382 269.5495  90.5277 14.98342747 76371,6950.153,96.106,574.369,569.668,0.0
55639.0,STARLINK-5508,PAYLOAD,2024-07-01 13:47:30,14.98323219,0.0003168,70.0004,297.8886,268.9064,91.1732,0.0001135,1.261e-05,0.0,0 STARLINK-5508,1 55639U 23021M   24183.57465470  .00001261  00000-0  11350-3 0  9995,2 55639  70.0004 297.8886 0003168 268.9064  91.1732 14.98323219 76202,6950.214,96.107,574.281,569.877,0.0
55639.0,STARLINK-5508,PAYLOAD,2024-07-01 16:59:46,14.98326955,0.0003193,70.0004,297.5521,270.8381,89.2412,0.00014829,1.677e-05,0.0,0 STARLINK-5508,1 55639U 23021M   24183.70817195  .00001677  00000-0  14829-3 0  9990,2 55639  70.0004 297.5521 0003193 270.8381  89.2412 14.98326955 76525,6950.202,96.107,574.287,569.848,0.0
55639.0,STARLINK-5508,PAYLOAD,2024-07-02 01:00:26,14.98331675,0.0003282,70.0001,296.7106,272.6508,87.4275,8.8735e-05,9.66e-06,0.0,0 STARLINK-5508,1 55639U 23021M   24184.04197041  .00000966  00000-0  88735-4 0  9997,2 55639  70.0001 296.7106 0003282 272.6508  87.4275 14.98331675 76276,6950.188,96.107,574.334,569.772,0.0
55639.0,STARLINK-5508,PAYLOAD,2024-07-02 13:49:30,14.98336997,0.0003268,70.0002,295.3637,271.0181,89.0603,2.3668e-05,1.89e-06,0.0,0 STARLINK-5508,1 55639U 23021M   24184.57604787  .00000189  00000-0  23668-4 0  9996,2 55639  70.0002 295.3637 0003268 271.0181  89.0603 14.98336997 76652,6950.171,96.107,574.308,569.765,0.0
55639.0,STARLINK-5508,PAYLOAD,2024-07-02 17:01:46,14.98337361,0.000324,70.0003,295.0272,270.5642,89.5146,3.5057e-05,3.25e-06,0.0,0 STARLINK-5508,1 55639U 23021M   24184.70956678  .00000325  00000-0  35057-4 0  9997,2 55639  70.0003 295.0272 0003240 270.5642  89.5146 14.98337361 76676,6950.17,96.107,574.287,569.783,0.0
55639.0,STARLINK-5508,PAYLOAD,2024-07-03 13:51:32,14.98326513,0.0003345,70.0001,292.8388,270.3173,89.7602,-2.5423e-05,-3.96e-06,0.0,0 STARLINK-5508,1 55639U 23021M   24185.57745545 -.00000396  00000-0 -25423-4 0  9998,2 55639  70.0001 292.8388 0003345 270.3173  89.7602 14.98326513 76508,6950.204,96.107,574.394,569.744,0.0
55639.0,STARLINK-5508,PAYLOAD,2024-07-03 17:03:48,14.98327324,0.0003391,70.0003,292.5028,270.0319,90.0451,-8.8678e-06,-1.99e-06,0.0,0 STARLINK-5508,1 55639U 23021M   24185.71097477 -.00000199  00000-0 -88678-5 0  9991,2 55639  70.0003 292.5028 0003391 270.0319  90.0451 14.98327324 76821,6950.201,96.107,574.423,569.709,0.0
55639.0,STARLINK-5508,PAYLOAD,2024-07-04 13:53:32,14.98336105,0.0003401,70.0,290.314,270.6015,89.4754,5.3374e-05,5.44e-06,0.0,0 STARLINK-5508,1 55639U 23021M   24186.57884797  .00000544  00000-0  53374-4 0  9991,2 55639  70.0000 290.3140 0003401 270.6015  89.4754 14.98336105 76656,6950.174,96.107,574.403,569.675,0.0
